O3B MPOWER F1           
1 54755U 22174A   24272.80632594 -.00000031  00000+0  00000+0 0  9999
2 54755   0.0533 345.7922 0006520 194.3279  37.8103  5.00113591 34025
